ICEYE-X53               
1 64584U 25135BJ  26192.02500594  .00000101  00000+0  12638-4 0  9993
2 64584  97.7365 308.7029 0001700 164.5617 195.5659 15.00876829 57652
ICEYE-X65               
1 66300U 25248H   26190.93952309  .00001945  00000+0  14071-3 0  9998
2 66300  45.4054  14.5380 0004928 169.9214 190.1767 15.07908239 38955
ICEYE-X66               
1 66301U 25248J   26191.47113304  .00001963  00000+0  13725-3 0  9998
2 66301  45.4022  10.8728 0004605 169.2953 190.8028 15.09157777 39022
ICEYE-X67               
1 66302U 25248K   26191.49576429  .00002439  00000+0  16683-3 0  9997
2 66302  45.4059  10.3192 0006224 169.5967 190.5044 15.09139997 39041
ICEYE-X58               
1 66751U 25276CP  26191.13553258  .00001539  00000+0  80570-4 0  9999
2 66751  97.4195 264.1180 0001919 241.0948 119.0093 15.17290879 33897
ICEYE-X59               
1 66752U 25276CQ  26191.21179544  .00003152  00000+0  25313-3 0  9997
2 66752  97.4377 261.5258 0000570 143.3764 216.7500 15.00724834 33724
ICEYE-X60               
1 66753U 25276CR  26191.63057498  .00002984  00000+0  18050-3 0  9999
2 66753  97.4184 263.6173 0000894 208.4786 151.6396 15.11381751 33905
ICEYE-X61               
1 66754U 25276CS  26191.61929169  .00002127  00000+0  10610-3 0  9994
2 66754  97.4195 264.6725 0001733 237.2900 122.8167 15.18593094 33978
ICEYE-X62               
1 66755U 25276CT  26192.18338221  .00001071  00000+0  69481-4 0  9999
2 66755  97.4193 263.6402 0000731 295.6137  64.5017 15.10122474 33951
ICEYE-X63               
1 67372U 26004K   26192.15051112  .00000584  00000+0  68982-4 0  9996
2 67372  97.8011 190.4161 0005598  61.6274 298.5506 14.88344443 26868
ICEYE-X64               
1 67373U 26004L   26191.59301919  .00000785  00000+0  91530-4 0  9995
2 67373  97.8024 189.7883 0007473  66.2935 293.9065 14.87980468 26775
ICEYE-X71               
1 68494U 26067CG  26191.33771511  .00001301  00000+0  13462-3 0  9992
2 68494  97.7615 149.2186 0001435   2.8077 357.3150 14.91779046 15172
ICEYE-X73               
1 68496U 26067CJ  26191.30017348  .00002114  00000+0  21229-3 0  9995
2 68496  97.7614 149.2635 0001149 153.7105 206.4173 14.92336562 15174
ICEYE-X75               
1 68497U 26067CK  26191.30409396  .00000820  00000+0  86022-4 0  9999
2 68497  97.7604 149.2369 0001002 151.7825 208.3448 14.92168072 15178
ICEYE-X74               
1 68500U 26067CN  26191.13562397  .00001239  00000+0  12844-3 0  9991
2 68500  97.7622 149.0293 0001276   0.8315 359.2905 14.91778831 15148
ICEYE-X76               
1 68502U 26067CQ  26190.59476962  .00000518  00000+0  56927-4 0  9994
2 68502  97.7637 148.5145 0001035 351.4143   8.7058 14.91743809 15066
